{
  "type": "FeatureCollection",
  "features": [
    {
      "type": "Feature",
      "properties": {
        "norad_id": 44204,
        "name": "BEIDOU-3 IGSO-1 (C38)",
        "group": "gnss",
        "lat": -58.36839066013844,
        "lon": -54.698902729146944,
        "alt_km": 35720.66225227184,
        "timestamp": "2025-12-09T07:41:33.449788+00:00",
        "meta_object_name": "BEIDOU-3 IGSO-1 (C38)",
        "meta_object_id": "2019-023A",
        "meta_epoch": "2025-11-19T14:15:02.708640",
        "meta_mean_motion": 1.00252177,
        "meta_eccentricity": 0.0026966,
        "meta_inclination": 58.4003,
        "meta_ra_of_asc_node": 39.8168,
        "meta_arg_of_pericenter": 221.2202,
        "meta_mean_anomaly": 126.9723,
        "meta_ephemeris_type": 0,
        "meta_classification_type": "U",
        "meta_norad_cat_id": 44204,
        "meta_element_set_no": 999,
        "meta_rev_at_epoch": 510,
        "meta_bstar": 0,
        "meta_mean_motion_dot": -2.26e-06,
        "meta_mean_motion_ddot": 0,
        "tle_line1": "1 44204U 19023A   25323.59378135 -.00000226  00000+0  00000+0 0  9994",
        "tle_line2": "2 44204  58.4003  39.8168 0026966 221.2202 126.9723  1.00252177  5102"
      },
      "geometry": {
        "type": "Point",
        "coordinates": [
          -54.698902729146944,
          -58.36839066013844
        ]
      }
    },
    {
      "type": "Feature",
      "properties": {
        "norad_id": 44231,
        "name": "BEIDOU-2 G8 (C01)",
        "group": "gnss",
        "lat": -1.6450874489747218,
        "lon": -21.753177816384298,
        "alt_km": 35751.89602026577,
        "timestamp": "2025-12-09T07:41:33.449810+00:00",
        "meta_object_name": "BEIDOU-2 G8 (C01)",
        "meta_object_id": "2019-027A",
        "meta_epoch": "2025-12-08T22:51:03.351168",
        "meta_mean_motion": 1.00268559,
        "meta_eccentricity": 0.00085139,
        "meta_inclination": 1.6519,
        "meta_ra_of_asc_node": 74.67,
        "meta_arg_of_pericenter": 254.7985,
        "meta_mean_anomaly": 235.7828,
        "meta_ephemeris_type": 0,
        "meta_classification_type": "U",
        "meta_norad_cat_id": 44231,
        "meta_element_set_no": 999,
        "meta_rev_at_epoch": 2417,
        "meta_bstar": 0,
        "meta_mean_motion_dot": -2.46e-06,
        "meta_mean_motion_ddot": 0,
        "tle_line1": "1 44231U 19027A   25342.95212212 -.00000246  00000+0  00000+0 0  9994",
        "tle_line2": "2 44231   1.6519  74.6700 0008513 254.7985 235.7828  1.00268559 24174"
      },
      "geometry": {
        "type": "Point",
        "coordinates": [
          -21.753177816384298,
          -1.6450874489747218
        ]
      }
    },
    {
      "type": "Feature",
      "properties": {
        "norad_id": 44299,
        "name": "COSMOS 2534 (758)",
        "group": "gnss",
        "lat": -62.75592405464891,
        "lon": 130.16833545969206,
        "alt_km": 19113.466706156145,
        "timestamp": "2025-12-09T07:41:33.449832+00:00",
        "meta_object_name": "COSMOS 2534 (758)",
        "meta_object_id": "2019-030A",
        "meta_epoch": "2025-12-09T00:14:05.856000",
        "meta_mean_motion": 2.13102084,
        "meta_eccentricity": 0.00090149,
        "meta_inclination": 64.3653,
        "meta_ra_of_asc_node": 199.0188,
        "meta_arg_of_pericenter": 283.3878,
        "meta_mean_anomaly": 117.7908,
        "meta_ephemeris_type": 0,
        "meta_classification_type": "U",
        "meta_norad_cat_id": 44299,
        "meta_element_set_no": 999,
        "meta_rev_at_epoch": 5087,
        "meta_bstar": 0,
        "meta_mean_motion_dot": 4.5e-07,
        "meta_mean_motion_ddot": 0,
        "tle_line1": "1 44299U 19030A   25343.00979000  .00000045  00000+0  00000+0 0  9990",
        "tle_line2": "2 44299  64.3653 199.0188 0009014 283.3878 117.7908  2.13102084 50870"
      },
      "geometry": {
        "type": "Point",
        "coordinates": [
          130.16833545969206,
          -62.75592405464891
        ]
      }
    },
    {
      "type": "Feature",
      "properties": {
        "norad_id": 44337,
        "name": "BEIDOU-3 IGSO-2 (C39)",
        "group": "gnss",
        "lat": 22.335787313297985,
        "lon": -36.09010124729632,
        "alt_km": 35682.39799358224,
        "timestamp": "2025-12-09T07:41:33.449851+00:00",
        "meta_object_name": "BEIDOU-3 IGSO-2 (C39)",
        "meta_object_id": "2019-035A",
        "meta_epoch": "2025-12-08T21:18:38.600064",
        "meta_mean_motion": 1.00272014,
        "meta_eccentricity": 0.00373007,
        "meta_inclination": 55.2241,
        "meta_ra_of_asc_node": 160.5341,
        "meta_arg_of_pericenter": 202.3504,
        "meta_mean_anomaly": 154.1975,
        "meta_ephemeris_type": 0,
        "meta_classification_type": "U",
        "meta_norad_cat_id": 44337,
        "meta_element_set_no": 999,
        "meta_rev_at_epoch": 2375,
        "meta_bstar": 0,
        "meta_mean_motion_dot": -7.9e-07,
        "meta_mean_motion_ddot": 0,
        "tle_line1": "1 44337U 19035A   25342.88794676 -.00000079  00000+0  00000+0 0  9995",
        "tle_line2": "2 44337  55.2241 160.5341 0037300 202.3504 154.1975  1.00272014 23757"
      },
      "geometry": {
        "type": "Point",
        "coordinates": [
          -36.09010124729632,
          22.335787313297985
        ]
      }
    },
    {
      "type": "Feature",
      "properties": {
        "norad_id": 44506,
        "name": "GPS BIII-2  (PRN 18)",
        "group": "gnss",
        "lat": 55.69714828972084,
        "lon": 70.28304303796934,
        "alt_km": 20221.2360246874,
        "timestamp": "2025-12-09T07:41:33.449870+00:00",
        "meta_object_name": "GPS BIII-2  (PRN 18)",
        "meta_object_id": "2019-056A",
        "meta_epoch": "2025-12-07T10:30:03.799008",
        "meta_mean_motion": 2.00565766,
        "meta_eccentricity": 0.00577762,
        "meta_inclination": 55.723,
        "meta_ra_of_asc_node": 338.7627,
        "meta_arg_of_pericenter": 198.4737,
        "meta_mean_anomaly": 333.4267,
        "meta_ephemeris_type": 0,
        "meta_classification_type": "U",
        "meta_norad_cat_id": 44506,
        "meta_element_set_no": 999,
        "meta_rev_at_epoch": 4622,
        "meta_bstar": 0,
        "meta_mean_motion_dot": -8.3e-07,
        "meta_mean_motion_ddot": 0,
        "tle_line1": "1 44506U 19056A   25341.43754397 -.00000083  00000+0  00000+0 0  9997",
        "tle_line2": "2 44506  55.7230 338.7627 0057776 198.4737 333.4267  2.00565766 46229"
      },
      "geometry": {
        "type": "Point",
        "coordinates": [
          70.28304303796934,
          55.69714828972084
        ]
      }
    },
    {
      "type": "Feature",
      "properties": {
        "norad_id": 44542,
        "name": "BEIDOU-3 M24 (C46)",
        "group": "gnss",
        "lat": 50.80052064091384,
        "lon": -52.33668946948035,
        "alt_km": 21518.890515800038,
        "timestamp": "2025-12-09T07:41:33.449888+00:00",
        "meta_object_name": "BEIDOU-3 M24 (C46)",
        "meta_object_id": "2019-061A",
        "meta_epoch": "2025-12-08T02:04:30.505152",
        "meta_mean_motion": 1.86229279,
        "meta_eccentricity": 0.00095745,
        "meta_inclination": 54.4002,
        "meta_ra_of_asc_node": 189.1732,
        "meta_arg_of_pericenter": 24.5539,
        "meta_mean_anomaly": 335.5587,
        "meta_ephemeris_type": 0,
        "meta_classification_type": "U",
        "meta_norad_cat_id": 44542,
        "meta_element_set_no": 999,
        "meta_rev_at_epoch": 4223,
        "meta_bstar": 0,
        "meta_mean_motion_dot": 5.3e-07,
        "meta_mean_motion_ddot": 0,
        "tle_line1": "1 44542U 19061A   25342.08646418  .00000053  00000+0  00000+0 0  9995",
        "tle_line2": "2 44542  54.4002 189.1732 0009574  24.5539 335.5587  1.86229279 42233"
      },
      "geometry": {
        "type": "Point",
        "coordinates": [
          -52.33668946948035,
          50.80052064091384
        ]
      }
    },
    {
      "type": "Feature",
      "properties": {
        "norad_id": 44543,
        "name": "BEIDOU-3 M23 (C45)",
        "group": "gnss",
        "lat": 16.306308494801804,
        "lon": -158.7925965060034,
        "alt_km": 21509.523344460216,
        "timestamp": "2025-12-09T07:41:33.449905+00:00",
        "meta_object_name": "BEIDOU-3 M23 (C45)",
        "meta_object_id": "2019-061B",
        "meta_epoch": "2025-12-08T18:00:07.463232",
        "meta_mean_motion": 1.8622754,
        "meta_eccentricity": 0.00060873,
        "meta_inclination": 54.3989,
        "meta_ra_of_asc_node": 189.119,
        "meta_arg_of_pericenter": 23.0878,
        "meta_mean_anomaly": 334.736,
        "meta_ephemeris_type": 0,
        "meta_classification_type": "U",
        "meta_norad_cat_id": 44543,
        "meta_element_set_no": 999,
        "meta_rev_at_epoch": 4224,
        "meta_bstar": 0,
        "meta_mean_motion_dot": 5e-07,
        "meta_mean_motion_ddot": 0,
        "tle_line1": "1 44543U 19061B   25342.75008638  .00000050  00000+0  00000+0 0  9993",
        "tle_line2": "2 44543  54.3989 189.1190 0006087  23.0878 334.7360  1.86227540 42241"
      },
      "geometry": {
        "type": "Point",
        "coordinates": [
          -158.7925965060034,
          16.306308494801804
        ]
      }
    }
  ]
}